[{"OBJECT_NAME":"STARLINK-1683","OBJECT_ID":"2020-070AY","EPOCH":"2026-03-10T00:00:02.999808","MEAN_MOTION":15.80836783,"ECCENTRICITY":0.00071266,"INCLINATION":53.0104,"RA_OF_ASC_NODE":69.9116,"ARG_OF_PERICENTER":22.2576,"MEAN_ANOMALY":140.1673,"EPHEMERIS_TYPE":0,"CLASSIFICATION_TYPE":"U","NORAD_CAT_ID":46578,"ELEMENT_SET_NO":999,"REV_AT_EPOCH":592,"BSTAR":0.0011834415,"MEAN_MOTION_DOT":0.00239404,"MEAN_MOTION_DDOT":0},{"OBJECT_NAME":"OBJECT G","OBJECT_ID":"2024-024G","EPOCH":"2026-03-09T20:28:53.132736","MEAN_MOTION":15.83306562,"ECCENTRICITY":0.00024191,"INCLINATION":97.3215,"RA_OF_ASC_NODE":161.9284,"ARG_OF_PERICENTER":77.0487,"MEAN_ANOMALY":283.1053,"EPHEMERIS_TYPE":0,"CLASSIFICATION_TYPE":"U","NORAD_CAT_ID":58923,"ELEMENT_SET_NO":999,"REV_AT_EPOCH":11779,"BSTAR":0.00058393874,"MEAN_MOTION_DOT":0.00127204,"MEAN_MOTION_DDOT":0}]
